COMMENT,ORIGINATOR,NORAD_CAT_ID,OBJECT_NAME,OBJECT_TYPE,CLASSIFICATION_TYPE,INTLDES,EPOCH,EPOCH_MICROSECONDS,MEAN_MOTION,ECCENTRICITY,INCLINATION,RA_OF_ASC_NODE,ARG_OF_PERICENTER,MEAN_ANOMALY,EPHEMERIS_TYPE,ELEMENT_SET_NO,REV_AT_EPOCH,BSTAR,MEAN_MOTION_DOT,MEAN_MOTION_DDOT,FILE,TLE_LINE0,TLE_LINE1,TLE_LINE2,OBJECT_ID,OBJECT_NUMBER,SEMIMAJOR_AXIS,PERIOD,APOGEE,PERIGEE,DECAYED
"GENERATED VIA SPACETRACK.ORG API","18 SPCS","12345","COSMOS 1174 DEB","DEBRIS","U","80030T","1983-06-09 08:47:56","157215","13.98186638","0.0659066","66.0622","274.437","342.9797","15.0015","0","999","60770","0.0005468","0.00005487","0","34357","0 COSMOS 1174 DEB","1 12345U 80030  T 83160.36662219  .00005487 +00000-0 +54680-3 0  9999","2 12345 066.0622 274.4370 0659066 342.9797 015.0015 13.98186638607704","1980-030T","12345","7278.223","102.991","1379.771","420.405","1"
"GENERATED VIA SPACETRACK.ORG API","18 SPCS","12345","COSMOS 1174 DEB","DEBRIS","U","80030T","1983-06-07 08:43:53","405184","13.98159635","0.0658541","66.0634","279.5842","344.0997","14.0243","0","999","60742","0.00047843","0.00004764","0","34357","0 COSMOS 1174 DEB","1 12345U 80030  T 83158.36381256  .00004764 +00000-0 +47843-3 0  9995","2 12345 066.0634 279.5842 0658541 344.0997 014.0243 13.98159635607427","1980-030T","12345","7278.317","102.993","1379.489","420.875","1"
"GENERATED VIA SPACETRACK.ORG API","18 SPCS","12345","COSMOS 1174 DEB","DEBRIS","U","80030T","1983-06-05 10:22:47","808192","13.98143236","0.0658349","66.0646","284.5444","345.1907","13.0606","0","999","60715","0.00052184","0.00005196","0","34357","0 COSMOS 1174 DEB","1 12345U 80030  T 83156.43249778  .00005196 +00000-0 +52184-3 0  9997","2 12345 066.0646 284.5444 0658349 345.1907 013.0606 13.98143236607155","1980-030T","12345","7278.374","102.994","1379.410","421.068","1"
"GENERATED VIA SPACETRACK.ORG API","18 SPCS","12345","COSMOS 1174 DEB","DEBRIS","U","80030T","1983-06-04 10:20:43","886399","13.98131332","0.0656183","66.0612","287.1067","345.8624","12.4763","0","999","60701","0.00048879","0.00004786","0","34357","0 COSMOS 1174 DEB","1 12345U 80030  T 83155.43106350  .00004786 +00000-0 +48879-3 0  9994","2 12345 066.0612 287.1067 0656183 345.8624 012.4763 13.98131332607011","1980-030T","12345","7278.415","102.995","1377.877","422.683","1"
"GENERATED VIA SPACETRACK.ORG API","18 SPCS","12345","COSMOS 1174 DEB","DEBRIS","U","80030T","1983-06-03 18:53:40","774272","13.98130446","0.0655794","66.0597","288.7583","346.2003","12.164","0","999","60692","0.00064552","0.00006341","0","34357","0 COSMOS 1174 DEB","1 12345U 80030  T 83154.78727748  .00006341 +00000-0 +64552-3 0  9996","2 12345 066.0597 288.7583 0655794 346.2003 012.1640 13.98130446606921","1980-030T","12345","7278.418","102.995","1377.597","422.969","1"
"GENERATED VIA SPACETRACK.ORG API","18 SPCS","12345","COSMOS 1174 DEB","DEBRIS","U","80030T","1983-05-31 11:55:23","399904","13.98086883","0.0657062","66.0602","297.2112","348.0178","10.5864","0","999","60646","0.0005565","0.00005491","0","34357","0 COSMOS 1174 DEB","1 12345U 80030  T 83151.49679861  .00005491 +00000-0 +55650-3 0  9997","2 12345 066.0602 297.2112 0657062 348.0178 010.5864 13.98086883606468","1980-030T","12345","7278.569","102.998","1378.681","422.187","1"
"GENERATED VIA SPACETRACK.ORG API","18 SPCS","12345","COSMOS 1174 DEB","DEBRIS","U","80030T","1983-05-30 11:53:16","215648","13.98077913","0.0657723","66.0598","299.781","348.5355","10.1247","0","999","60632","0.00059088","0.00005859","0","34357","0 COSMOS 1174 DEB","1 12345U 80030  T 83150.49532657  .00005859 +00000-0 +59088-3 0  9994","2 12345 066.0598 299.7810 0657723 348.5355 010.1247 13.98077913606320","1980-030T","12345","7278.600","102.999","1379.196","421.735","1"
"GENERATED VIA SPACETRACK.ORG API","18 SPCS","12345","COSMOS 1174 DEB","DEBRIS","U","80030T","1983-05-28 20:24:02","804543","13.98061577","0.0657287","66.0566","303.9966","349.486","9.2653","0","999","60609","0.00066665","0.00006602","0","34357","0 COSMOS 1174 DEB","1 12345U 80030  T 83148.85003246  .00006602 +00000-0 +66665-3 0  9994","2 12345 066.0566 303.9966 0657287 349.4860 009.2653 13.98061577606094","1980-030T","12345","7278.657","103.000","1378.939","422.105","1"
"GENERATED VIA SPACETRACK.ORG API","18 SPCS","12345","COSMOS 1174 DEB","DEBRIS","U","80030T","1983-05-27 18:38:53","924063","13.98051012","0.0657151","66.0578","306.7572","350.0801","8.7798","0","999","60594","0.00073208","0.00007252","0","34357","0 COSMOS 1174 DEB","1 12345U 80030  T 83147.77701301  .00007252 +00000-0 +73208-3 0  9994","2 12345 066.0578 306.7572 0657151 350.0801 008.7798 13.98051012605944","1980-030T","12345","7278.694","103.001","1378.879","422.239","1"
"GENERATED VIA SPACETRACK.ORG API","18 SPCS","12345","COSMOS 1174 DEB","DEBRIS","U","80030T","1983-05-26 10:01:40","801439","13.98034712","0.0656754","66.0605","310.2566","350.8195","8.1344","0","999","60575","0.00079192","0.0000783","0","34357","0 COSMOS 1174 DEB","1 12345U 80030  T 83146.41783335  .00007830 +00000-0 +79192-3 0  9991","2 12345 066.0605 310.2566 0656754 350.8195 008.1344 13.98034712605758","1980-030T","12345","7278.750","103.002","1378.650","422.580","1"
"GENERATED VIA SPACETRACK.ORG API","18 SPCS","12345","COSMOS 1174 DEB","DEBRIS","U","80030T","1983-05-25 13:25:31","895615","13.98019728","0.0656633","66.0616","312.4627","351.3161","7.6968","0","999","60563","0.00076566","0.00007556","0","34357","0 COSMOS 1174 DEB","1 12345U 80030  T 83145.55939694  .00007556 +00000-0 +76566-3 0  9993","2 12345 066.0616 312.4627 0656633 351.3161 007.6968 13.98019728605630","1980-030T","12345","7278.802","103.003","1378.617","422.717","1"
"GENERATED VIA SPACETRACK.ORG API","18 SPCS","12345","COSMOS 1174 DEB","DEBRIS","U","80030T","1983-05-22 13:18:54","843551","13.97970749","0.0656923","66.0619","320.1747","353.0131","6.2119","0","999","60521","0.00069084","0.00006806","0","34357","0 COSMOS 1174 DEB","1 12345U 80030  T 83142.55480143  .00006806 +00000-0 +69084-3 0  9994","2 12345 066.0619 320.1747 0656923 353.0131 006.2119 13.97970749605215","1980-030T","12345","7278.972","103.006","1379.010","422.665","1"
"GENERATED VIA SPACETRACK.ORG API","18 SPCS","12345","COSMOS 1174 DEB","DEBRIS","U","80030T","1983-05-21 20:08:44","673216","13.97958756","0.0656696","66.0626","322.0132","353.4271","5.8489","0","999","60511","0.00064873","0.00006373","0","34357","0 COSMOS 1174 DEB","1 12345U 80030  T 83141.83940594  .00006373 +00000-0 +64873-3 0  9995","2 12345 066.0626 322.0132 0656696 353.4271 005.8489 13.97958756605116","1980-030T","12345","7279.014","103.007","1378.889","422.869","1"
"GENERATED VIA SPACETRACK.ORG API","18 SPCS","12345","COSMOS 1174 DEB","DEBRIS","U","80030T","1983-05-18 13:09:52","410528","13.97915923","0.0657597","66.0641","330.4634","355.2761","4.2321","0","999","60465","0.00070032","0.00006919","0","34357","0 COSMOS 1174 DEB","1 12345U 80030  T 83138.54852327  .00006919 +00000-0 +70032-3 0  9995","2 12345 066.0641 330.4634 0657597 355.2761 004.2321 13.97915923604653","1980-030T","12345","7279.163","103.010","1379.703","422.352","1"
"GENERATED VIA SPACETRACK.ORG API","18 SPCS","12345","COSMOS 1174 DEB","DEBRIS","U","80030T","1983-05-17 14:50:35","786400","13.97902397","0.0657771","66.0642","332.8498","355.8006","3.7616","0","999","60452","0.0006898","0.00006819","0","34357","0 COSMOS 1174 DEB","1 12345U 80030  T 83137.61846975  .00006819 +00000-0 +68980-3 0  9992","2 12345 066.0642 332.8498 0657771 355.8006 003.7616 13.97902397604528","1980-030T","12345","7279.210","103.011","1379.880","422.269","1"
"GENERATED VIA SPACETRACK.ORG API","18 SPCS","12345","COSMOS 1174 DEB","DEBRIS","U","80030T","1983-05-15 23:21:04","297823","13.97884773","0.0657481","66.0615","337.0697","356.7203","2.928","0","999","60429","0.00081474","0.00008054","0","34357","0 COSMOS 1174 DEB","1 12345U 80030  T 83135.97296641  .00008054 +00000-0 +81474-3 0  9994","2 12345 066.0615 337.0697 0657481 356.7203 002.9280 13.97884773604292","1980-030T","12345","7279.271","103.013","1379.734","422.537","1"
"GENERATED VIA SPACETRACK.ORG API","18 SPCS","12345","COSMOS 1174 DEB","DEBRIS","U","80030T","1983-05-15 14:45:57","735647","13.97878933","0.0657265","66.0617","337.9879","356.9375","2.7607","0","999","60424","0.00081486","0.00008043","0","34357","0 COSMOS 1174 DEB","1 12345U 80030  T 83135.61525157  .00008043 +00000-0 +81486-3 0  9993","2 12345 066.0617 337.9879 0657265 356.9375 002.7607 13.97878933604244","1980-030T","12345","7279.291","103.013","1379.598","422.714","1"
"GENERATED VIA SPACETRACK.ORG API","18 SPCS","12345","COSMOS 1174 DEB","DEBRIS","U","80030T","1983-05-14 14:43:38","35488","13.97868906","0.0656415","66.0636","340.5657","357.5198","2.2807","0","999","60410","0.00092387","0.00009079","0","34357","0 COSMOS 1174 DEB","1 12345U 80030  T 83134.61363467  .00009079 +00000-0 +92387-3 0  9998","2 12345 066.0636 340.5657 0656415 357.5198 002.2807 13.97868906604106","1980-030T","12345","7279.326","103.014","1379.017","423.365","1"
"GENERATED VIA SPACETRACK.ORG API","18 SPCS","12345","COSMOS 1174 DEB","DEBRIS","U","80030T","1983-05-13 23:16:24","225311","13.97848448","0.0656416","66.0631","342.2169","357.881","1.9153","0","999","60401","0.00079311","0.00007772","0","34357","0 COSMOS 1174 DEB","1 12345U 80030  T 83133.96972483  .00007772 +00000-0 +79311-3 0  9999","2 12345 066.0631 342.2169 0656416 357.8810 001.9153 13.97848448604012","1980-030T","12345","7279.397","103.015","1379.093","423.431","1"
"GENERATED VIA SPACETRACK.ORG API","18 SPCS","12345","COSMOS 1174 DEB","DEBRIS","U","80030T","1983-05-12 16:21:56","482271","13.97826372","0.0656508","66.0635","345.5222","358.5971","1.3296","0","999","60383","0.00075143","0.00007355","0","34357","0 COSMOS 1174 DEB","1 12345U 80030  T 83132.68190373  .00007355 +00000-0 +75143-3 0  9993","2 12345 066.0635 345.5222 0656508 358.5971 001.3296 13.97826372603833","1980-030T","12345","7279.473","103.017","1379.242","423.435","1"
